{"fetched_at":"2026-07-23T07:05:44.990Z","source":"https://celestrak.org/NORAD/elements/gp.php?NAME=HULIANWANG&FORMAT=JSON","constellation":"guowang","records":[{"OBJECT_NAME":"HULIANWANG DIGUI-108","OBJECT_ID":"2025-285D","EPOCH":"2026-07-22T20:40:01.822080","CLASSIFICATION_TYPE":"U","MEAN_MOTION":13.29325977,"ECCENTRICITY":0.00009177,"INCLINATION":50.0064,"RA_OF_ASC_NODE":18.0528,"ARG_OF_PERICENTER":65.1892,"MEAN_ANOMALY":294.9075,"EPHEMERIS_TYPE":0,"NORAD_CAT_ID":66918,"ELEMENT_SET_NO":999,"REV_AT_EPOCH":3080,"BSTAR":0.000005837703,"MEAN_MOTION_DOT":-0.00000121,"MEAN_MOTION_DDOT":0},{"OBJECT_NAME":"HULIANWANG DIGUI-109","OBJECT_ID":"2025-285E","EPOCH":"2026-07-22T20:27:54.746208","CLASSIFICATION_TYPE":"U","MEAN_MOTION":13.29316763,"ECCENTRICITY":0.00008757,"INCLINATION":50.009,"RA_OF_ASC_NODE":18.0551,"ARG_OF_PERICENTER":74.7747,"MEAN_ANOMALY":285.3222,"EPHEMERIS_TYPE":0,"NORAD_CAT_ID":66919,"ELEMENT_SET_NO":999,"REV_AT_EPOCH":3081,"BSTAR":0.000025148158,"MEAN_MOTION_DOT":-0.00000112,"MEAN_MOTION_DDOT":0},{"OBJECT_NAME":"HULIANWANG DIGUI-110","OBJECT_ID":"2025-285F","EPOCH":"2026-07-22T22:04:17.354784","CLASSIFICATION_TYPE":"U","MEAN_MOTION":13.29326683,"ECCENTRICITY":0.00008682,"INCLINATION":50.0121,"RA_OF_ASC_NODE":17.8012,"ARG_OF_PERICENTER":65.491,"MEAN_ANOMALY":294.6053,"EPHEMERIS_TYPE":0,"NORAD_CAT_ID":66920,"ELEMENT_SET_NO":999,"REV_AT_EPOCH":3081,"BSTAR":0.000061185372,"MEAN_MOTION_DOT":-9.6e-7,"MEAN_MOTION_DDOT":0},{"OBJECT_NAME":"HULIANWANG DIGUI-111","OBJECT_ID":"2025-285G","EPOCH":"2026-07-22T12:51:01.450944","CLASSIFICATION_TYPE":"U","MEAN_MOTION":13.29326169,"ECCENTRICITY":0.00008717,"INCLINATION":50.0138,"RA_OF_ASC_NODE":19.1367,"ARG_OF_PERICENTER":65.5627,"MEAN_ANOMALY":294.5336,"EPHEMERIS_TYPE":0,"NORAD_CAT_ID":66921,"ELEMENT_SET_NO":999,"REV_AT_EPOCH":3076,"BSTAR":0.000047018121,"MEAN_MOTION_DOT":-0.00000102,"MEAN_MOTION_DDOT":0},{"OBJECT_NAME":"HULIANWANG DIGUI-112","OBJECT_ID":"2025-285H","EPOCH":"2026-07-22T12:38:56.022720","CLASSIFICATION_TYPE":"U","MEAN_MOTION":13.29326078,"ECCENTRICITY":0.00009278,"INCLINATION":50.01,"RA_OF_ASC_NODE":19.027,"ARG_OF_PERICENTER":61.5702,"MEAN_ANOMALY":298.5264,"EPHEMERIS_TYPE":0,"NORAD_CAT_ID":66922,"ELEMENT_SET_NO":999,"REV_AT_EPOCH":3076,"BSTAR":0.000046219173,"MEAN_MOTION_DOT":-0.00000103,"MEAN_MOTION_DDOT":0},{"OBJECT_NAME":"HULIANWANG DIGUI-113","OBJECT_ID":"2025-285J","EPOCH":"2026-07-22T19:40:06.117600","CLASSIFICATION_TYPE":"U","MEAN_MOTION":13.29324547,"ECCENTRICITY":0.00009311,"INCLINATION":50.0111,"RA_OF_ASC_NODE":17.923,"ARG_OF_PERICENTER":61.9138,"MEAN_ANOMALY":298.1828,"EPHEMERIS_TYPE":0,"NORAD_CAT_ID":66923,"ELEMENT_SET_NO":999,"REV_AT_EPOCH":3080,"BSTAR":0.000047710038,"MEAN_MOTION_DOT":-0.00000102,"MEAN_MOTION_DDOT":0},{"OBJECT_NAME":"HULIANWANG DIGUI-114","OBJECT_ID":"2025-287A","EPOCH":"2026-07-22T15:35:12.957792","CLASSIFICATION_TYPE":"U","MEAN_MOTION":13.24413785,"ECCENTRICITY":0.00022473,"INCLINATION":86.4921,"RA_OF_ASC_NODE":270.3843,"ARG_OF_PERICENTER":95.3974,"MEAN_ANOMALY":264.7416,"EPHEMERIS_TYPE":0,"NORAD_CAT_ID":66953,"ELEMENT_SET_NO":999,"REV_AT_EPOCH":3003,"BSTAR":0.000012032971,"MEAN_MOTION_DOT":2e-7,"MEAN_MOTION_DDOT":0},{"OBJECT_NAME":"HULIANWANG DIGUI-115","OBJECT_ID":"2025-287B","EPOCH":"2026-07-22T06:20:02.865120","CLASSIFICATION_TYPE":"U","MEAN_MOTION":13.24401187,"ECCENTRICITY":0.00024998,"INCLINATION":86.4937,"RA_OF_ASC_NODE":270.5449,"ARG_OF_PERICENTER":91.9103,"MEAN_ANOMALY":268.2318,"EPHEMERIS_TYPE":0,"NORAD_CAT_ID":66954,"ELEMENT_SET_NO":999,"REV_AT_EPOCH":2998,"BSTAR":-0.000011047048,"MEAN_MOTION_DOT":1e-7,"MEAN_MOTION_DDOT":0},{"OBJECT_NAME":"HULIANWANG DIGUI-116","OBJECT_ID":"2025-287C","EPOCH":"2026-07-22T15:13:28.133760","CLASSIFICATION_TYPE":"U","MEAN_MOTION":13.24413447,"ECCENTRICITY":0.00023185,"INCLINATION":86.4877,"RA_OF_ASC_NODE":270.276,"ARG_OF_PERICENTER":92.7649,"MEAN_ANOMALY":267.375,"EPHEMERIS_TYPE":0,"NORAD_CAT_ID":66955,"ELEMENT_SET_NO":999,"REV_AT_EPOCH":3003,"BSTAR":-0.000012645414,"MEAN_MOTION_DOT":9e-8,"MEAN_MOTION_DDOT":0},{"OBJECT_NAME":"HULIANWANG DIGUI-117","OBJECT_ID":"2025-287D","EPOCH":"2026-07-22T05:58:41.560896","CLASSIFICATION_TYPE":"U","MEAN_MOTION":13.24413143,"ECCENTRICITY":0.00007252,"INCLINATION":86.4938,"RA_OF_ASC_NODE":270.5392,"ARG_OF_PERICENTER":79.3067,"MEAN_ANOMALY":280.8149,"EPHEMERIS_TYPE":0,"NORAD_CAT_ID":66956,"ELEMENT_SET_NO":999,"REV_AT_EPOCH":2998,"BSTAR":-0.000003143267,"MEAN_MOTION_DOT":1.3e-7,"MEAN_MOTION_DDOT":0},{"OBJECT_NAME":"HULIANWANG DIGUI-118","OBJECT_ID":"2025-287E","EPOCH":"2026-07-22T14:51:44.999712","CLASSIFICATION_TYPE":"U","MEAN_MOTION":13.24412594,"ECCENTRICITY":0.00023016,"INCLINATION":86.4913,"RA_OF_ASC_NODE":270.3532,"ARG_OF_PERICENTER":94.6575,"MEAN_ANOMALY":265.4822,"EPHEMERIS_TYPE":0,"NORAD_CAT_ID":66957,"ELEMENT_SET_NO":999,"REV_AT_EPOCH":3003,"BSTAR":0.000028764543,"MEAN_MOTION_DOT":2.7e-7,"MEAN_MOTION_DDOT":0},{"OBJECT_NAME":"HULIANWANG DIGUI-119","OBJECT_ID":"2025-295A","EPOCH":"2026-07-22T20:48:07.360704","CLASSIFICATION_TYPE":"U","MEAN_MOTION":13.29325048,"ECCENTRICITY":0.00011234,"INCLINATION":50.0025,"RA_OF_ASC_NODE":257.8177,"ARG_OF_PERICENTER":220.3429,"MEAN_ANOMALY":139.736,"EPHEMERIS_TYPE":0,"NORAD_CAT_ID":67059,"ELEMENT_SET_NO":999,"REV_AT_EPOCH":3024,"BSTAR":0.000070398601,"MEAN_MOTION_DOT":-9.1e-7,"MEAN_MOTION_DDOT":0},{"OBJECT_NAME":"HULIANWANG DIGUI-120","OBJECT_ID":"2025-295B","EPOCH":"2026-07-22T20:24:04.819392","CLASSIFICATION_TYPE":"U","MEAN_MOTION":13.2932492,"ECCENTRICITY":0.00011813,"INCLINATION":50.0031,"RA_OF_ASC_NODE":257.7412,"ARG_OF_PERICENTER":221.1554,"MEAN_ANOMALY":138.9229,"EPHEMERIS_TYPE":0,"NORAD_CAT_ID":67060,"ELEMENT_SET_NO":999,"REV_AT_EPOCH":3024,"BSTAR":0.000059503868,"MEAN_MOTION_DOT":-9.6e-7,"MEAN_MOTION_DDOT":0},{"OBJECT_NAME":"HULIANWANG DIGUI-121","OBJECT_ID":"2025-295C","EPOCH":"2026-07-22T20:36:05.329728","CLASSIFICATION_TYPE":"U","MEAN_MOTION":13.29326294,"ECCENTRICITY":0.00011632,"INCLINATION":49.9992,"RA_OF_ASC_NODE":257.7084,"ARG_OF_PERICENTER":219.024,"MEAN_ANOMALY":141.0549,"EPHEMERIS_TYPE":0,"NORAD_CAT_ID":67061,"ELEMENT_SET_NO":999,"REV_AT_EPOCH":3024,"BSTAR":0.000068451595,"MEAN_MOTION_DOT":-9.2e-7,"MEAN_MOTION_DDOT":0},{"OBJECT_NAME":"HULIANWANG DIGUI-122","OBJECT_ID":"2025-295D","EPOCH":"2026-07-22T20:11:56.299776","CLASSIFICATION_TYPE":"U","MEAN_MOTION":13.29324845,"ECCENTRICITY":0.00011599,"INCLINATION":50.0025,"RA_OF_ASC_NODE":257.6874,"ARG_OF_PERICENTER":218.7391,"MEAN_ANOMALY":141.3398,"EPHEMERIS_TYPE":0,"NORAD_CAT_ID":67062,"ELEMENT_SET_NO":999,"REV_AT_EPOCH":3024,"BSTAR":0.000059735382,"MEAN_MOTION_DOT":-9.6e-7,"MEAN_MOTION_DDOT":0},{"OBJECT_NAME":"HULIANWANG DIGUI-123","OBJECT_ID":"2025-295E","EPOCH":"2026-07-22T14:35:13.157952","CLASSIFICATION_TYPE":"U","MEAN_MOTION":13.29324443,"ECCENTRICITY":0.00010812,"INCLINATION":50.0026,"RA_OF_ASC_NODE":258.4567,"ARG_OF_PERICENTER":219.9256,"MEAN_ANOMALY":140.1536,"EPHEMERIS_TYPE":0,"NORAD_CAT_ID":67063,"ELEMENT_SET_NO":999,"REV_AT_EPOCH":3021,"BSTAR":0.000065346355,"MEAN_MOTION_DOT":-9.4e-7,"MEAN_MOTION_DDOT":0}]}
