{"epoch":1784799577,"count":18318,"objects":[{"id":"66918","name":"HULIANWANG DIGUI-108","type":"PAYLOAD","l1":"1 66918U 25285D   26203.86113220 -.00000121  00000-0  58377-5 0  9998","l2":"2 66918  50.0064  18.0528 0000918  65.1892 294.9075 13.29325977 30805"},{"id":"66919","name":"HULIANWANG DIGUI-109","type":"PAYLOAD","l1":"1 66919U 25285E   26203.85271697 -.00000112  00000-0  25148-4 0  9990","l2":"2 66919  50.0090  18.0551 0000876  74.7747 285.3222 13.29316763 30811"},{"id":"66920","name":"HULIANWANG DIGUI-110","type":"PAYLOAD","l1":"1 66920U 25285F   26203.91964531 -.00000096  00000-0  61185-4 0  9997","l2":"2 66920  50.0121  17.8012 0000868  65.4910 294.6053 13.29326683 30814"},{"id":"66921","name":"HULIANWANG DIGUI-111","type":"PAYLOAD","l1":"1 66921U 25285G   26203.53543346 -.00000102  00000-0  47018-4 0  9990","l2":"2 66921  50.0138  19.1367 0000872  65.5627 294.5336 13.29326169 30768"},{"id":"66922","name":"HULIANWANG DIGUI-112","type":"PAYLOAD","l1":"1 66922U 25285H   26203.52703730 -.00000103  00000-0  46219-4 0  9998","l2":"2 66922  50.0100  19.0270 0000928  61.5702 298.5264 13.29326078 30765"},{"id":"66923","name":"HULIANWANG DIGUI-113","type":"PAYLOAD","l1":"1 66923U 25285J   26203.81951525 -.00000102  00000-0  47710-4 0  9994","l2":"2 66923  50.0111  17.9230 0000931  61.9138 298.1828 13.29324547 30808"},{"id":"66953","name":"HULIANWANG DIGUI-114","type":"PAYLOAD","l1":"1 66953U 25287A   26203.64945553  .00000020  00000-0  12033-4 0  9992","l2":"2 66953  86.4921 270.3843 0002247  95.3974 264.7416 13.24413785 30034"},{"id":"66954","name":"HULIANWANG DIGUI-115","type":"PAYLOAD","l1":"1 66954U 25287B   26203.26392205  .00000010  00000-0 -11047-4 0  9995","l2":"2 66954  86.4937 270.5449 0002500  91.9103 268.2318 13.24401187 29989"},{"id":"66955","name":"HULIANWANG DIGUI-116","type":"PAYLOAD","l1":"1 66955U 25287C   26203.63435340  .00000009  00000-0 -12645-4 0  9998","l2":"2 66955  86.4877 270.2760 0002318  92.7649 267.3750 13.24413447 30037"},{"id":"66956","name":"HULIANWANG DIGUI-117","type":"PAYLOAD","l1":"1 66956U 25287D   26203.24909214  .00000013  00000-0 -31433-5 0  9994","l2":"2 66956  86.4938 270.5392 0000725  79.3067 280.8149 13.24413143 29982"},{"id":"66957","name":"HULIANWANG DIGUI-118","type":"PAYLOAD","l1":"1 66957U 25287E   26203.61927083  .00000027  00000-0  28765-4 0  9997","l2":"2 66957  86.4913 270.3532 0002302  94.6575 265.4822 13.24412594 30031"},{"id":"67059","name":"HULIANWANG DIGUI-119","type":"PAYLOAD","l1":"1 67059U 25295A   26203.86675186 -.00000091  00000-0  70399-4 0  9993","l2":"2 67059  50.0025 257.8177 0001123 220.3429 139.7360 13.29325048 30242"},{"id":"67060","name":"HULIANWANG DIGUI-120","type":"PAYLOAD","l1":"1 67060U 25295B   26203.85005578 -.00000096  00000-0  59504-4 0  9996","l2":"2 67060  50.0031 257.7412 0001181 221.1554 138.9229 13.29324920 30247"},{"id":"67061","name":"HULIANWANG DIGUI-121","type":"PAYLOAD","l1":"1 67061U 25295C   26203.85839502 -.00000092  00000-0  68452-4 0  9997","l2":"2 67061  49.9992 257.7084 0001163 219.0240 141.0549 13.29326294 30240"},{"id":"67062","name":"HULIANWANG DIGUI-122","type":"PAYLOAD","l1":"1 67062U 25295D   26203.84162384 -.00000096  00000-0  59735-4 0  9992","l2":"2 67062  50.0025 257.6874 0001160 218.7391 141.3398 13.29324845 30242"},{"id":"67063","name":"HULIANWANG DIGUI-123","type":"PAYLOAD","l1":"1 67063U 25295E   26203.60779118 -.00000094  00000-0  65346-4 0  9999","l2":"2 67063  50.0026 258.4567 0001081 219.9256 140.1536 13.29324443 30219"}]}